{
  "type": "FeatureCollection",
  "features": [
    {
      "type": "Feature",
      "properties": {
        "norad_id": 25590,
        "name": "COSMOS 2361",
        "group": "musson",
        "lat": 80.6788401076388,
        "lon": 39.94402164909859,
        "alt_km": 1000.1978087477919,
        "timestamp": "2025-12-03T13:52:09.831280+00:00",
        "meta_object_name": "COSMOS 2361",
        "meta_object_id": "1998-076A",
        "meta_epoch": "2025-12-03T03:16:39.347328",
        "meta_mean_motion": 13.73215872,
        "meta_eccentricity": 0.00301586,
        "meta_inclination": 82.9342,
        "meta_ra_of_asc_node": 351.1897,
        "meta_arg_of_pericenter": 293.4817,
        "meta_mean_anomaly": 129.7779,
        "meta_ephemeris_type": 0,
        "meta_classification_type": "U",
        "meta_norad_cat_id": 25590,
        "meta_element_set_no": 999,
        "meta_rev_at_epoch": 34979,
        "meta_bstar": 8.1409927e-05,
        "meta_mean_motion_dot": 9e-07,
        "meta_mean_motion_ddot": 0,
        "tle_line1": "1 25590U 98076A   25337.13656652  .00000090  00000+0  81410-4 0  9991",
        "tle_line2": "2 25590  82.9342 351.1897 0030158 293.4817 129.7779 13.73215872349799"
      },
      "geometry": {
        "type": "Point",
        "coordinates": [
          39.94402164909859,
          80.6788401076388
        ]
      }
    },
    {
      "type": "Feature",
      "properties": {
        "norad_id": 26818,
        "name": "COSMOS 2378",
        "group": "musson",
        "lat": 53.762988508860765,
        "lon": 176.76694296714064,
        "alt_km": 985.8785022654747,
        "timestamp": "2025-12-03T13:52:09.831302+00:00",
        "meta_object_name": "COSMOS 2378",
        "meta_object_id": "2001-023A",
        "meta_epoch": "2025-12-03T08:04:15.664224",
        "meta_mean_motion": 13.74140663,
        "meta_eccentricity": 0.00319229,
        "meta_inclination": 82.928,
        "meta_ra_of_asc_node": 6.6978,
        "meta_arg_of_pericenter": 231.7478,
        "meta_mean_anomaly": 139.6801,
        "meta_ephemeris_type": 0,
        "meta_classification_type": "U",
        "meta_norad_cat_id": 26818,
        "meta_element_set_no": 999,
        "meta_rev_at_epoch": 22794,
        "meta_bstar": 6.8749575e-05,
        "meta_mean_motion_dot": 8e-07,
        "meta_mean_motion_ddot": 0,
        "tle_line1": "1 26818U 01023A   25337.33629241  .00000080  00000+0  68750-4 0  9998",
        "tle_line2": "2 26818  82.9280   6.6978 0031922 231.7478 139.6801 13.74140663227948"
      },
      "geometry": {
        "type": "Point",
        "coordinates": [
          176.76694296714064,
          53.762988508860765
        ]
      }
    },
    {
      "type": "Feature",
      "properties": {
        "norad_id": 27436,
        "name": "COSMOS 2389",
        "group": "musson",
        "lat": -60.089171118706155,
        "lon": -58.65492918359733,
        "alt_km": 1017.5142219171448,
        "timestamp": "2025-12-03T13:52:09.831316+00:00",
        "meta_object_name": "COSMOS 2389",
        "meta_object_id": "2002-026A",
        "meta_epoch": "2025-12-03T07:42:47.507616",
        "meta_mean_motion": 13.75153121,
        "meta_eccentricity": 0.00477802,
        "meta_inclination": 82.9494,
        "meta_ra_of_asc_node": 313.9578,
        "meta_arg_of_pericenter": 86.3226,
        "meta_mean_anomaly": 24.0425,
        "meta_ephemeris_type": 0,
        "meta_classification_type": "U",
        "meta_norad_cat_id": 27436,
        "meta_element_set_no": 999,
        "meta_rev_at_epoch": 18019,
        "meta_bstar": 7.2008677e-05,
        "meta_mean_motion_dot": 8.5e-07,
        "meta_mean_motion_ddot": 0,
        "tle_line1": "1 27436U 02026A   25337.32138319  .00000085  00000+0  72009-4 0  9996",
        "tle_line2": "2 27436  82.9494 313.9578 0047780  86.3226  24.0425 13.75153121180194"
      },
      "geometry": {
        "type": "Point",
        "coordinates": [
          -58.65492918359733,
          -60.089171118706155
        ]
      }
    },
    {
      "type": "Feature",
      "properties": {
        "norad_id": 27818,
        "name": "COSMOS 2398",
        "group": "musson",
        "lat": -16.767683268257695,
        "lon": -82.68735991648498,
        "alt_km": 1017.0039397608707,
        "timestamp": "2025-12-03T13:52:09.831327+00:00",
        "meta_object_name": "COSMOS 2398",
        "meta_object_id": "2003-023A",
        "meta_epoch": "2025-12-03T07:41:46.457376",
        "meta_mean_motion": 13.72384279,
        "meta_eccentricity": 0.00322227,
        "meta_inclination": 82.9475,
        "meta_ra_of_asc_node": 279.6397,
        "meta_arg_of_pericenter": 137.0815,
        "meta_mean_anomaly": 16.2221,
        "meta_ephemeris_type": 0,
        "meta_classification_type": "U",
        "meta_norad_cat_id": 27818,
        "meta_element_set_no": 999,
        "meta_rev_at_epoch": 12687,
        "meta_bstar": 4.6473178e-05,
        "meta_mean_motion_dot": 5.8e-07,
        "meta_mean_motion_ddot": 0,
        "tle_line1": "1 27818U 03023A   25337.32067659  .00000058  00000+0  46473-4 0  9992",
        "tle_line2": "2 27818  82.9475 279.6397 0032222 137.0815  16.2221 13.72384279126876"
      },
      "geometry": {
        "type": "Point",
        "coordinates": [
          -82.68735991648498,
          -16.767683268257695
        ]
      }
    },
    {
      "type": "Feature",
      "properties": {
        "norad_id": 28380,
        "name": "COSMOS 2407",
        "group": "musson",
        "lat": 48.931298121241156,
        "lon": -132.1739136850451,
        "alt_km": 946.7485123703527,
        "timestamp": "2025-12-03T13:52:09.831339+00:00",
        "meta_object_name": "COSMOS 2407",
        "meta_object_id": "2004-028A",
        "meta_epoch": "2025-12-03T05:28:21.664128",
        "meta_mean_motion": 13.76312024,
        "meta_eccentricity": 0.0040528,
        "meta_inclination": 82.9614,
        "meta_ra_of_asc_node": 219.9344,
        "meta_arg_of_pericenter": 80.6345,
        "meta_mean_anomaly": 36.6056,
        "meta_ephemeris_type": 0,
        "meta_classification_type": "U",
        "meta_norad_cat_id": 28380,
        "meta_element_set_no": 999,
        "meta_rev_at_epoch": 7292,
        "meta_bstar": 9.662319e-05,
        "meta_mean_motion_dot": 1.1e-06,
        "meta_mean_motion_ddot": 0,
        "tle_line1": "1 28380U 04028A   25337.22802852  .00000110  00000+0  96623-4 0  9995",
        "tle_line2": "2 28380  82.9614 219.9344 0040528  80.6345  36.6056 13.76312024 72925"
      },
      "geometry": {
        "type": "Point",
        "coordinates": [
          -132.1739136850451,
          48.931298121241156
        ]
      }
    },
    {
      "type": "Feature",
      "properties": {
        "norad_id": 28521,
        "name": "COSMOS 2414",
        "group": "musson",
        "lat": -67.16925415405754,
        "lon": 174.49318146508926,
        "alt_km": 960.6834935473189,
        "timestamp": "2025-12-03T13:52:09.831350+00:00",
        "meta_object_name": "COSMOS 2414",
        "meta_object_id": "2005-002A",
        "meta_epoch": "2025-12-03T07:16:44.807232",
        "meta_mean_motion": 13.87901028,
        "meta_eccentricity": 0.00403124,
        "meta_inclination": 82.9499,
        "meta_ra_of_asc_node": 191.7951,
        "meta_arg_of_pericenter": 166.1936,
        "meta_mean_anomaly": 194.034,
        "meta_ephemeris_type": 0,
        "meta_classification_type": "U",
        "meta_norad_cat_id": 28521,
        "meta_element_set_no": 999,
        "meta_rev_at_epoch": 5664,
        "meta_bstar": 9.2236523e-05,
        "meta_mean_motion_dot": 1.26e-06,
        "meta_mean_motion_ddot": 0,
        "tle_line1": "1 28521U 05002A   25337.30329638  .00000126  00000+0  92237-4 0  9994",
        "tle_line2": "2 28521  82.9499 191.7951 0040312 166.1936 194.0340 13.87901028 56647"
      },
      "geometry": {
        "type": "Point",
        "coordinates": [
          174.49318146508926,
          -67.16925415405754
        ]
      }
    },
    {
      "type": "Feature",
      "properties": {
        "norad_id": 32052,
        "name": "COSMOS 2429",
        "group": "musson",
        "lat": 53.39481034328097,
        "lon": 160.51606889360326,
        "alt_km": 962.8633452020431,
        "timestamp": "2025-12-03T13:52:09.831361+00:00",
        "meta_object_name": "COSMOS 2429",
        "meta_object_id": "2007-038A",
        "meta_epoch": "2025-12-03T08:01:26.979456",
        "meta_mean_motion": 13.7514803,
        "meta_eccentricity": 0.00396295,
        "meta_inclination": 82.9805,
        "meta_ra_of_asc_node": 350.243,
        "meta_arg_of_pericenter": 63.4558,
        "meta_mean_anomaly": 297.0652,
        "meta_ephemeris_type": 0,
        "meta_classification_type": "U",
        "meta_norad_cat_id": 32052,
        "meta_element_set_no": 999,
        "meta_rev_at_epoch": 91473,
        "meta_bstar": 7.9205018e-05,
        "meta_mean_motion_dot": 9.2e-07,
        "meta_mean_motion_ddot": 0,
        "tle_line1": "1 32052U 07038A   25337.33434004  .00000092  00000+0  79205-4 0  9998",
        "tle_line2": "2 32052  82.9805 350.2430 0039629  63.4558 297.0652 13.75148030914730"
      },
      "geometry": {
        "type": "Point",
        "coordinates": [
          160.51606889360326,
          53.39481034328097
        ]
      }
    },
    {
      "type": "Feature",
      "properties": {
        "norad_id": 35635,
        "name": "COSMOS 2454",
        "group": "musson",
        "lat": -81.40673622539234,
        "lon": 120.68156889082087,
        "alt_km": 951.2114751534446,
        "timestamp": "2025-12-03T13:52:09.831372+00:00",
        "meta_object_name": "COSMOS 2454",
        "meta_object_id": "2009-039A",
        "meta_epoch": "2025-12-03T08:11:47.137056",
        "meta_mean_motion": 13.89926768,
        "meta_eccentricity": 0.00204816,
        "meta_inclination": 82.9556,
        "meta_ra_of_asc_node": 175.7691,
        "meta_arg_of_pericenter": 98.862,
        "meta_mean_anomaly": 73.9878,
        "meta_ephemeris_type": 0,
        "meta_classification_type": "U",
        "meta_norad_cat_id": 35635,
        "meta_element_set_no": 999,
        "meta_rev_at_epoch": 83019,
        "meta_bstar": 7.7317355e-05,
        "meta_mean_motion_dot": 1.11e-06,
        "meta_mean_motion_ddot": 0,
        "tle_line1": "1 35635U 09039A   25337.34151779  .00000111  00000+0  77317-4 0  9991",
        "tle_line2": "2 35635  82.9556 175.7691 0020481  98.8620  73.9878 13.89926768830195"
      },
      "geometry": {
        "type": "Point",
        "coordinates": [
          120.68156889082087,
          -81.40673622539234
        ]
      }
    },
    {
      "type": "Feature",
      "properties": {
        "norad_id": 36519,
        "name": "COSMOS 2463",
        "group": "musson",
        "lat": -16.889829932709862,
        "lon": -144.40563971563583,
        "alt_km": 1010.338912890179,
        "timestamp": "2025-12-03T13:52:09.831382+00:00",
        "meta_object_name": "COSMOS 2463",
        "meta_object_id": "2010-017A",
        "meta_epoch": "2025-12-03T06:14:02.812992",
        "meta_mean_motion": 13.71647845,
        "meta_eccentricity": 0.00351057,
        "meta_inclination": 82.9622,
        "meta_ra_of_asc_node": 33.6785,
        "meta_arg_of_pericenter": 315.2427,
        "meta_mean_anomaly": 111.9683,
        "meta_ephemeris_type": 0,
        "meta_classification_type": "U",
        "meta_norad_cat_id": 36519,
        "meta_element_set_no": 999,
        "meta_rev_at_epoch": 78107,
        "meta_bstar": 8.0288207e-05,
        "meta_mean_motion_dot": 8.7e-07,
        "meta_mean_motion_ddot": 0,
        "tle_line1": "1 36519U 10017A   25337.25975478  .00000087  00000+0  80288-4 0  9994",
        "tle_line2": "2 36519  82.9622  33.6785 0035105 315.2427 111.9683 13.71647845781073"
      },
      "geometry": {
        "type": "Point",
        "coordinates": [
          -144.40563971563583,
          -16.889829932709862
        ]
      }
    }
  ]
}